[{"OBJECT_NAME":"ONEWEB-0266","OBJECT_ID":"2021-060T","EPOCH":"2026-03-09T21:03:49.611456","MEAN_MOTION":13.16595868,"ECCENTRICITY":0.00016314,"INCLINATION":87.9006,"RA_OF_ASC_NODE":248.5264,"ARG_OF_PERICENTER":91.3621,"MEAN_ANOMALY":268.7697,"EPHEMERIS_TYPE":0,"CLASSIFICATION_TYPE":"U","NORAD_CAT_ID":48984,"ELEMENT_SET_NO":999,"REV_AT_EPOCH":22651,"BSTAR":-5.6105331e-5,"MEAN_MOTION_DOT":-9.0e-8,"MEAN_MOTION_DDOT":0},{"OBJECT_NAME":"FENGYUN 1C DEB","OBJECT_ID":"1999-025HN","EPOCH":"2026-03-09T17:13:16.756320","MEAN_MOTION":13.57104112,"ECCENTRICITY":0.02715839,"INCLINATION":99.1898,"RA_OF_ASC_NODE":87.3504,"ARG_OF_PERICENTER":36.3985,"MEAN_ANOMALY":28.4551,"EPHEMERIS_TYPE":0,"CLASSIFICATION_TYPE":"U","NORAD_CAT_ID":29916,"ELEMENT_SET_NO":999,"REV_AT_EPOCH":94632,"BSTAR":0.00088903476,"MEAN_MOTION_DOT":7.64e-6,"MEAN_MOTION_DDOT":0}]
